{
  "norad_id": 60197,
  "name": "STARLINK-32023",
  "history": [
    {
      "epoch": "2026-03-28T20:10:07.730400",
      "apogee_km": 475.91752542744234,
      "perigee_km": 474.57028780882047,
      "latitude_deg": 25.466488863311056,
      "longitude_deg": -79.62474399991333,
      "semi_major_axis_km": 6853.380906618131,
      "eccentricity": 9.829e-05,
      "inclination_deg": 53.1597,
      "raan_deg": 233.8344,
      "arg_perigee_deg": 96.042,
      "mean_anomaly_deg": 264.0693,
      "mean_motion_rev_day": 15.30190342
    }
  ]
}